HST                     
1 20580U 90037B   26068.15977042  .00009063  00000+0  30023-3 0  9999
2 20580  28.4717  43.6133 0001837 120.9992 239.0785 15.29473555773239
STARLINK-2396           
1 47815U 21018AE  26068.71700811 -.00002539  00000+0 -73640-4 0  9998
2 47815  53.1602 242.5663 0001192  95.5807 264.5329 15.30191012276727
